[{"OBJECT_NAME":"ONEWEB-0634","OBJECT_ID":"2023-043AF","EPOCH":"2026-05-09T03:09:20.812896","MEAN_MOTION":13.15549153,"ECCENTRICITY":0.0001662,"INCLINATION":87.897,"RA_OF_ASC_NODE":267.0153,"ARG_OF_PERICENTER":108.473,"MEAN_ANOMALY":251.6581,"EPHEMERIS_TYPE":0,"CLASSIFICATION_TYPE":"U","NORAD_CAT_ID":56075,"ELEMENT_SET_NO":999,"REV_AT_EPOCH":15126,"BSTAR":0.00013104,"MEAN_MOTION_DOT":6.2e-07,"MEAN_MOTION_DDOT":0.0},{"OBJECT_NAME":"ONEWEB-0635","OBJECT_ID":"2023-043AG","EPOCH":"2026-05-09T03:02:31.015104","MEAN_MOTION":13.15547925,"ECCENTRICITY":0.0002134,"INCLINATION":87.8978,"RA_OF_ASC_NODE":266.9753,"ARG_OF_PERICENTER":99.7038,"MEAN_ANOMALY":260.4334,"EPHEMERIS_TYPE":0,"CLASSIFICATION_TYPE":"U","NORAD_CAT_ID":56076,"ELEMENT_SET_NO":999,"REV_AT_EPOCH":15129,"BSTAR":0.00024153,"MEAN_MOTION_DOT":1.04e-06,"MEAN_MOTION_DDOT":0.0},{"OBJECT_NAME":"ONEWEB-0636","OBJECT_ID":"2023-043AH","EPOCH":"2026-05-09T02:51:06.041952","MEAN_MOTION":13.15548201,"ECCENTRICITY":0.0002079,"INCLINATION":87.8968,"RA_OF_ASC_NODE":266.986,"ARG_OF_PERICENTER":100.2143,"MEAN_ANOMALY":259.9221,"EPHEMERIS_TYPE":0,"CLASSIFICATION_TYPE":"U","NORAD_CAT_ID":56077,"ELEMENT_SET_NO":999,"REV_AT_EPOCH":15127,"BSTAR":-0.00024721000000000004,"MEAN_MOTION_DOT":-8e-07,"MEAN_MOTION_DDOT":0.0},{"OBJECT_NAME":"ONEWEB-0637","OBJECT_ID":"2023-043AJ","EPOCH":"2026-05-09T02:41:58.169184","MEAN_MOTION":13.15548416,"ECCENTRICITY":0.0002012,"INCLINATION":87.8967,"RA_OF_ASC_NODE":267.0044,"ARG_OF_PERICENTER":108.1844,"MEAN_ANOMALY":251.9505,"EPHEMERIS_TYPE":0,"CLASSIFICATION_TYPE":"U","NORAD_CAT_ID":56078,"ELEMENT_SET_NO":999,"REV_AT_EPOCH":15129,"BSTAR":-0.00028698,"MEAN_MOTION_DOT":-9.5e-07,"MEAN_MOTION_DDOT":0.0},{"OBJECT_NAME":"ONEWEB-0647","OBJECT_ID":"2023-043AK","EPOCH":"2026-05-09T02:35:05.756064","MEAN_MOTION":13.15550042,"ECCENTRICITY":0.0001944,"INCLINATION":87.8969,"RA_OF_ASC_NODE":267.0179,"ARG_OF_PERICENTER":95.6399,"MEAN_ANOMALY":264.4953,"EPHEMERIS_TYPE":0,"CLASSIFICATION_TYPE":"U","NORAD_CAT_ID":56079,"ELEMENT_SET_NO":999,"REV_AT_EPOCH":15128,"BSTAR":-0.00022831000000000001,"MEAN_MOTION_DOT":-7.3e-07,"MEAN_MOTION_DDOT":0.0},{"OBJECT_NAME":"ONEWEB-0651","OBJECT_ID":"2023-043AL","EPOCH":"2026-05-09T04:17:48.096096","MEAN_MOTION":13.15549291,"ECCENTRICITY":0.0002079,"INCLINATION":87.8968,"RA_OF_ASC_NODE":266.9978,"ARG_OF_PERICENTER":103.2745,"MEAN_ANOMALY":256.8617,"EPHEMERIS_TYPE":0,"CLASSIFICATION_TYPE":"U","NORAD_CAT_ID":56080,"ELEMENT_SET_NO":999,"REV_AT_EPOCH":15249,"BSTAR":3.7459e-05,"MEAN_MOTION_DOT":2.7e-07,"MEAN_MOTION_DDOT":0.0},{"OBJECT_NAME":"ONEWEB-0718","OBJECT_ID":"2023-043AM","EPOCH":"2026-05-09T02:21:26.957952","MEAN_MOTION":13.1554821,"ECCENTRICITY":0.0001415,"INCLINATION":87.8968,"RA_OF_ASC_NODE":266.9943,"ARG_OF_PERICENTER":109.5934,"MEAN_ANOMALY":250.5349,"EPHEMERIS_TYPE":0,"CLASSIFICATION_TYPE":"U","NORAD_CAT_ID":56081,"ELEMENT_SET_NO":999,"REV_AT_EPOCH":15129,"BSTAR":-8.1913e-07,"MEAN_MOTION_DOT":1.3e-07,"MEAN_MOTION_DDOT":0.0},{"OBJECT_NAME":"ONEWEB-0561","OBJECT_ID":"2023-068A","EPOCH":"2026-05-08T22:56:14.684928","MEAN_MOTION":13.20784457,"ECCENTRICITY":0.000222,"INCLINATION":87.9155,"RA_OF_ASC_NODE":282.2691,"ARG_OF_PERICENTER":93.266,"MEAN_ANOMALY":266.8727,"EPHEMERIS_TYPE":0,"CLASSIFICATION_TYPE":"U","NORAD_CAT_ID":56710,"ELEMENT_SET_NO":999,"REV_AT_EPOCH":14432,"BSTAR":3.7599000000000004e-05,"MEAN_MOTION_DOT":2.8e-07,"MEAN_MOTION_DDOT":0.0},{"OBJECT_NAME":"ONEWEB-0668","OBJECT_ID":"2023-068B","EPOCH":"2026-05-09T05:08:51.466848","MEAN_MOTION":13.16595827,"ECCENTRICITY":0.0001839,"INCLINATION":87.9105,"RA_OF_ASC_NODE":236.5092,"ARG_OF_PERICENTER":118.1499,"MEAN_ANOMALY":241.9818,"EPHEMERIS_TYPE":0,"CLASSIFICATION_TYPE":"U","NORAD_CAT_ID":56711,"ELEMENT_SET_NO":999,"REV_AT_EPOCH":14665,"BSTAR":0.00024207000000000002,"MEAN_MOTION_DOT":1.05e-06,"MEAN_MOTION_DDOT":0.0},{"OBJECT_NAME":"ONEWEB-0676","OBJECT_ID":"2023-068C","EPOCH":"2026-05-09T05:20:16.363104","MEAN_MOTION":13.16594948,"ECCENTRICITY":0.000229,"INCLINATION":87.9103,"RA_OF_ASC_NODE":236.5143,"ARG_OF_PERICENTER":103.0456,"MEAN_ANOMALY":257.0931,"EPHEMERIS_TYPE":0,"CLASSIFICATION_TYPE":"U","NORAD_CAT_ID":56712,"ELEMENT_SET_NO":999,"REV_AT_EPOCH":14657,"BSTAR":0.00032871,"MEAN_MOTION_DOT":1.39e-06,"MEAN_MOTION_DDOT":0.0},{"OBJECT_NAME":"ONEWEB-0677","OBJECT_ID":"2023-068D","EPOCH":"2026-05-08T22:40:06.017376","MEAN_MOTION":13.20871712,"ECCENTRICITY":0.0001843,"INCLINATION":87.9159,"RA_OF_ASC_NODE":282.2621,"ARG_OF_PERICENTER":102.8523,"MEAN_ANOMALY":257.2816,"EPHEMERIS_TYPE":0,"CLASSIFICATION_TYPE":"U","NORAD_CAT_ID":56713,"ELEMENT_SET_NO":999,"REV_AT_EPOCH":14462,"BSTAR":0.0055442,"MEAN_MOTION_DOT":2.271e-05,"MEAN_MOTION_DDOT":0.0},{"OBJECT_NAME":"ONEWEB-0678","OBJECT_ID":"2023-068E","EPOCH":"2026-05-09T03:25:18.893856","MEAN_MOTION":13.1554927,"ECCENTRICITY":0.0001901,"INCLINATION":87.8977,"RA_OF_ASC_NODE":266.974,"ARG_OF_PERICENTER":90.1288,"MEAN_ANOMALY":270.006,"EPHEMERIS_TYPE":0,"CLASSIFICATION_TYPE":"U","NORAD_CAT_ID":56714,"ELEMENT_SET_NO":999,"REV_AT_EPOCH":14415,"BSTAR":0.00018146000000000001,"MEAN_MOTION_DOT":8.1e-07,"MEAN_MOTION_DDOT":0.0},{"OBJECT_NAME":"ONEWEB-0679","OBJECT_ID":"2023-068F","EPOCH":"2026-05-09T00:42:06.918336","MEAN_MOTION":13.16595185,"ECCENTRICITY":0.0002267,"INCLINATION":87.9102,"RA_OF_ASC_NODE":236.5435,"ARG_OF_PERICENTER":115.9417,"MEAN_ANOMALY":244.1947,"EPHEMERIS_TYPE":0,"CLASSIFICATION_TYPE":"U","NORAD_CAT_ID":56715,"ELEMENT_SET_NO":999,"REV_AT_EPOCH":14657,"BSTAR":3.0444000000000002e-05,"MEAN_MOTION_DOT":2.4e-07,"MEAN_MOTION_DDOT":0.0},{"OBJECT_NAME":"ONEWEB-0680","OBJECT_ID":"2023-068G","EPOCH":"2026-05-09T00:52:35.931072","MEAN_MOTION":13.21836801,"ECCENTRICITY":0.0001966,"INCLINATION":87.925,"RA_OF_ASC_NODE":251.76,"ARG_OF_PERICENTER":119.9298,"MEAN_ANOMALY":240.2032,"EPHEMERIS_TYPE":0,"CLASSIFICATION_TYPE":"U","NORAD_CAT_ID":56716,"ELEMENT_SET_NO":999,"REV_AT_EPOCH":14592,"BSTAR":-0.0049966,"MEAN_MOTION_DOT":-2.05e-05,"MEAN_MOTION_DDOT":0.0},{"OBJECT_NAME":"ONEWEB-0681","OBJECT_ID":"2023-068H","EPOCH":"2026-05-09T02:13:44.977152","MEAN_MOTION":13.21824896,"ECCENTRICITY":0.0002899,"INCLINATION":87.9239,"RA_OF_ASC_NODE":251.752,"ARG_OF_PERICENTER":99.9518,"MEAN_ANOMALY":260.1944,"EPHEMERIS_TYPE":0,"CLASSIFICATION_TYPE":"U","NORAD_CAT_ID":56717,"ELEMENT_SET_NO":999,"REV_AT_EPOCH":14592,"BSTAR":0.00018465000000000002,"MEAN_MOTION_DOT":8.9e-07,"MEAN_MOTION_DDOT":0.0},{"OBJECT_NAME":"ONEWEB-0682","OBJECT_ID":"2023-068J","EPOCH":"2026-05-09T02:09:59.505984","MEAN_MOTION":13.15550784,"ECCENTRICITY":0.0001825,"INCLINATION":87.8977,"RA_OF_ASC_NODE":266.9858,"ARG_OF_PERICENTER":116.5437,"MEAN_ANOMALY":243.5881,"EPHEMERIS_TYPE":0,"CLASSIFICATION_TYPE":"U","NORAD_CAT_ID":56718,"ELEMENT_SET_NO":999,"REV_AT_EPOCH":14431,"BSTAR":1.0462e-05,"MEAN_MOTION_DOT":1.7e-07,"MEAN_MOTION_DDOT":0.0}]