ONEWEB-0634             
1 56075U 23043AF  26129.13149089  .00000062  00000+0  13104-3 0  9999
2 56075  87.8970 267.0153 0001662 108.4730 251.6581 13.15549153151266
ONEWEB-0635             
1 56076U 23043AG  26129.12674786  .00000104  00000+0  24153-3 0  9999
2 56076  87.8978 266.9753 0002134  99.7038 260.4334 13.15547925151299
ONEWEB-0636             
1 56077U 23043AH  26129.11881993 -.00000080  00000+0 -24721-3 0  9995
2 56077  87.8968 266.9860 0002079 100.2143 259.9221 13.15548201151275
ONEWEB-0637             
1 56078U 23043AJ  26129.11247881 -.00000095  00000+0 -28698-3 0  9991
2 56078  87.8967 267.0044 0002012 108.1844 251.9505 13.15548416151290
ONEWEB-0647             
1 56079U 23043AK  26129.10770551 -.00000073  00000+0 -22831-3 0  9995
2 56079  87.8969 267.0179 0001944  95.6399 264.4953 13.15550042151283
ONEWEB-0651             
1 56080U 23043AL  26129.17902889  .00000027  00000+0  37459-4 0  9995
2 56080  87.8968 266.9978 0002079 103.2745 256.8617 13.15549291152490
ONEWEB-0718             
1 56081U 23043AM  26129.09822868  .00000013  00000+0 -81913-6 0  9997
2 56081  87.8968 266.9943 0001415 109.5934 250.5349 13.15548210151295
ONEWEB-0561             
1 56710U 23068A   26128.95572552  .00000028  00000+0  37599-4 0  9993
2 56710  87.9155 282.2691 0002220  93.2660 266.8727 13.20784457144321
ONEWEB-0668             
1 56711U 23068B   26129.21448457  .00000105  00000+0  24207-3 0  9997
2 56711  87.9105 236.5092 0001839 118.1499 241.9818 13.16595827146655
ONEWEB-0676             
1 56712U 23068C   26129.22241161  .00000139  00000+0  32871-3 0  9995
2 56712  87.9103 236.5143 0002290 103.0456 257.0931 13.16594948146577
ONEWEB-0677             
1 56713U 23068D   26128.94451409  .00002271  00000+0  55442-2 0  9999
2 56713  87.9159 282.2621 0001843 102.8523 257.2816 13.20871712144623
ONEWEB-0678             
1 56714U 23068E   26129.14257979  .00000081  00000+0  18146-3 0  9997
2 56714  87.8977 266.9740 0001901  90.1288 270.0060 13.15549270144151
ONEWEB-0679             
1 56715U 23068F   26129.02924674  .00000024  00000+0  30444-4 0  9991
2 56715  87.9102 236.5435 0002267 115.9417 244.1947 13.16595185146574
ONEWEB-0680             
1 56716U 23068G   26129.03652698 -.00002050  00000+0 -49966-2 0  9997
2 56716  87.9250 251.7600 0001966 119.9298 240.2032 13.21836801145927
ONEWEB-0681             
1 56717U 23068H   26129.09288168  .00000089  00000+0  18465-3 0  9990
2 56717  87.9239 251.7520 0002899  99.9518 260.1944 13.21824896145928
ONEWEB-0682             
1 56718U 23068J   26129.09027206  .00000017  00000+0  10462-4 0  9996
2 56718  87.8977 266.9858 0001825 116.5437 243.5881 13.15550784144315
